421P/McNaught,e,10.0795,55.3478,259.8357,5.075400,0.0861983,0.67548361,38.0301,04/12.0/2022,2000,g 14.0,4.0
# From MPEC 2022-A21
422P/Christensen,e,39.5458,36.0355,305.1553,6.321103,0.0620176,0.50875756,5.4703,04/12.0/2022,2000,g 11.0,4.0
# From MPEC 2022-A21
423P/Lemmon,e,8.3459,33.3051,80.3023,6.166233,0.0643686,0.12103098,13.2247,04/12.0/2022,2000,g  8.0,4.0
# From MPEC 2022-CN4
424P/LaSagra,e,8.6855,51.1777,312.4769,4.413955,0.1062826,0.69126564,17.2567,04/12.0/2022,2000,g 17.0,4.0
# From MPEC 2022-GA9
425P/Kowalski,e,16.4205,210.0853,200.7521,6.331385,0.0618666,0.54351611,12.5908,04/12.0/2022,2000,g 12.0,4.0
# From MPEC 2021-Y10
426P/PANSTARRS,e,17.7732,280.5219,119.1282,3.186219,0.1732968,0.16131536,269.8789,04/12.0/2022,2000,g 13.5,4.0
# From MPEC 2022-C56
428P/Gibbs,e,8.5149,299.3370,36.8221,3.484366,0.1515369,0.51949526,50.3607,04/12.0/2022,2000,g 15.0,4.0
# From MPEC 2022-ED3
429P/LINEAR-Hill,e,7.5220,322.0732,75.5382,3.550564,0.1473188,0.49128110,14.7111,04/12.0/2022,2000,g 15.5,4.0
# From MPEC 2022-CN4
430P/Scotti,e,4.4750,54.6721,94.4986,3.106737,0.1799896,0.49960074,23.5396,04/12.0/2022,2000,g 16.5,4.0
# From MPEC 2022-ED3
431P/Scotti,e,22.3922,202.8464,199.8569,3.472276,0.1523290,0.47766713,8.7790,04/12.0/2022,2000,g 14.0,4.0
# From MPEC 2021-U31
432P/PANSTARRS,e,10.0693,239.1430,105.2374,3.035519,0.1863608,0.24203811,41.8652,04/12.0/2022,2000,g 17.0,4.0
# From MPEC 2022-GA9
434P/Tenagra,e,6.3396,288.9679,128.0524,4.127961,0.1175170,0.27433993,19.7641,04/12.0/2022,2000,g 13.0,4.0
# From MPEC 2021-W31
435P/PANSTARRS,e,18.8827,98.5498,244.1512,3.018366,0.1879517,0.31871627,48.5924,04/12.0/2022,2000,g 17.0,4.0
# From MPEC 2022-C56
436P/Garradd,e,20.2105,87.1896,282.5963,5.928917,0.0682717,0.66981745,8.4997,04/12.0/2022,2000,g 14.5,4.0
# From MPEC 2021-Y10
437P/PANSTARRS,e,3.6897,245.8688,206.7111,4.558589,0.1012648,0.25411218,346.9951,04/12.0/2022,2000,g 13.0,4.0
# From MPEC 2021-W47
438P/Christensen,e,8.2879,260.1553,58.9455,3.847004,0.1306232,0.41575290,96.2219,04/12.0/2022,2000,g 14.5,4.0
# From MPEC 2022-C56
439P/LINEAR,e,7.1143,56.4166,341.9996,3.487629,0.1513243,0.46948342,34.6370,04/12.0/2022,2000,g 13.5,4.0
# From MPEC 2022-GA9
440P/Kobayashi,e,12.3395,328.8822,183.3186,8.584807,0.0391840,0.76048005,0.5113,04/12.0/2022,2000,g 15.5,4.0
# From MPEC 2022-F14
441P/PANSTARRS,e,2.5745,143.6159,178.7252,4.134816,0.1172249,0.19560011,214.0715,04/12.0/2022,2000,g 13.5,4.0
# From MPC107687
1I/`Oumuamua,h,09/09.4886/2017,122.6778,24.5997,241.6845,1.199252,0.255240,2000,23.0,2.0
# From MPEC 2020-K19
2I/Borisov,h,12/08.5549/2019,44.0527,308.1480,209.1251,3.356636,2.006548,2000,11.0,4.0
